[{"OBJECT_NAME":"STARLINK-30436","OBJECT_ID":"2023-144S","EPOCH":"2026-03-09T16:00:03.000096","MEAN_MOTION":15.27577698,"ECCENTRICITY":0.00015784,"INCLINATION":43.0005,"RA_OF_ASC_NODE":285.1072,"ARG_OF_PERICENTER":260.0887,"MEAN_ANOMALY":201.0081,"EPHEMERIS_TYPE":0,"CLASSIFICATION_TYPE":"U","NORAD_CAT_ID":57880,"ELEMENT_SET_NO":999,"REV_AT_EPOCH":574,"BSTAR":0.0001270346,"MEAN_MOTION_DOT":3.235e-5,"MEAN_MOTION_DDOT":0},{"OBJECT_NAME":"HYPERFIELD-1A","OBJECT_ID":"2024-149CY","EPOCH":"2026-03-09T18:21:25.814304","MEAN_MOTION":15.29681349,"ECCENTRICITY":0.00038648,"INCLINATION":97.3842,"RA_OF_ASC_NODE":149.5066,"ARG_OF_PERICENTER":313.7844,"MEAN_ANOMALY":46.3076,"EPHEMERIS_TYPE":0,"CLASSIFICATION_TYPE":"U","NORAD_CAT_ID":60562,"ELEMENT_SET_NO":999,"REV_AT_EPOCH":8683,"BSTAR":0.00030052114,"MEAN_MOTION_DOT":8.569e-5,"MEAN_MOTION_DDOT":0}]
